{
  "norad_id": 55299,
  "name": "STARLINK-5270",
  "history": [
    {
      "epoch": "2026-03-28T22:09:14.830848",
      "apogee_km": 574.1205915966675,
      "perigee_km": 569.9899533252983,
      "latitude_deg": -69.46897041768594,
      "longitude_deg": 158.51647871988826,
      "semi_major_axis_km": 6950.192272460983,
      "eccentricity": 0.00029716,
      "inclination_deg": 69.9992,
      "raan_deg": 335.8243,
      "arg_perigee_deg": 266.1448,
      "mean_anomaly_deg": 93.9372,
      "mean_motion_rev_day": 14.983302
    },
    {
      "epoch": "2026-03-29T02:57:38.848320",
      "apogee_km": 573.9833530301685,
      "perigee_km": 570.0982036520754,
      "latitude_deg": 68.79172505647904,
      "longitude_deg": 177.74316479987465,
      "semi_major_axis_km": 6950.177778341122,
      "eccentricity": 0.0002795,
      "inclination_deg": 69.9993,
      "raan_deg": 335.3194,
      "arg_perigee_deg": 265.3495,
      "mean_anomaly_deg": 94.7344,
      "mean_motion_rev_day": 14.98334887
    }
  ]
}